[{"OBJECT_NAME":"CENTISPACE-1 OBJECT H","OBJECT_ID":"2026-060H","EPOCH":"2026-03-25T14:49:38.254368","MEAN_MOTION":14.75425125,"ECCENTRICITY":0.00144709,"INCLINATION":54.9848,"RA_OF_ASC_NODE":16.6351,"ARG_OF_PERICENTER":304.4277,"MEAN_ANOMALY":55.5354,"EPHEMERIS_TYPE":0,"CLASSIFICATION_TYPE":"U","NORAD_CAT_ID":68357,"ELEMENT_SET_NO":999,"REV_AT_EPOCH":44,"BSTAR":3.3491501e-5,"MEAN_MOTION_DOT":1.9e-7,"MEAN_MOTION_DDOT":0},{"OBJECT_NAME":"CENTISPACE-1 OBJECT J","OBJECT_ID":"2026-060J","EPOCH":"2026-03-25T14:49:37.060320","MEAN_MOTION":14.75435012,"ECCENTRICITY":0.0013871,"INCLINATION":54.9877,"RA_OF_ASC_NODE":16.6351,"ARG_OF_PERICENTER":306.1411,"MEAN_ANOMALY":53.8304,"EPHEMERIS_TYPE":0,"CLASSIFICATION_TYPE":"U","NORAD_CAT_ID":68358,"ELEMENT_SET_NO":999,"REV_AT_EPOCH":44,"BSTAR":3.3263e-5,"MEAN_MOTION_DOT":1.7e-7,"MEAN_MOTION_DDOT":0},{"OBJECT_NAME":"CENTISPACE-1 OBJECT K","OBJECT_ID":"2026-060K","EPOCH":"2026-03-27T22:06:12.557088","MEAN_MOTION":14.75497793,"ECCENTRICITY":0.00145238,"INCLINATION":54.9797,"RA_OF_ASC_NODE":7.2302,"ARG_OF_PERICENTER":311.8804,"MEAN_ANOMALY":48.0956,"EPHEMERIS_TYPE":0,"CLASSIFICATION_TYPE":"U","NORAD_CAT_ID":68359,"ELEMENT_SET_NO":999,"REV_AT_EPOCH":78,"BSTAR":3.6584733e-5,"MEAN_MOTION_DOT":4.0e-7,"MEAN_MOTION_DDOT":0},{"OBJECT_NAME":"SUPERVIEW NEO-2 OBJECT A","OBJECT_ID":"2026-062A","EPOCH":"2026-03-28T02:27:44.406720","MEAN_MOTION":15.20117201,"ECCENTRICITY":0.00081688,"INCLINATION":97.4379,"RA_OF_ASC_NODE":95.5549,"ARG_OF_PERICENTER":263.6047,"MEAN_ANOMALY":96.4258,"EPHEMERIS_TYPE":0,"CLASSIFICATION_TYPE":"U","NORAD_CAT_ID":68377,"ELEMENT_SET_NO":999,"REV_AT_EPOCH":33,"BSTAR":7.2014081e-5,"MEAN_MOTION_DOT":1.488e-5,"MEAN_MOTION_DDOT":0},{"OBJECT_NAME":"SUPERVIEW NEO-2 OBJECT B","OBJECT_ID":"2026-062B","EPOCH":"2026-03-27T01:10:54.793056","MEAN_MOTION":15.20012563,"ECCENTRICITY":0.00103961,"INCLINATION":97.4356,"RA_OF_ASC_NODE":94.5245,"ARG_OF_PERICENTER":272.384,"MEAN_ANOMALY":87.6205,"EPHEMERIS_TYPE":0,"CLASSIFICATION_TYPE":"U","NORAD_CAT_ID":68378,"ELEMENT_SET_NO":999,"REV_AT_EPOCH":17,"BSTAR":0.00014872926,"MEAN_MOTION_DOT":3.139e-5,"MEAN_MOTION_DDOT":0},{"OBJECT_NAME":"CZ-2D R/B","OBJECT_ID":"2026-062C","EPOCH":"2026-03-28T14:38:41.675712","MEAN_MOTION":15.3101289,"ECCENTRICITY":0.0053658,"INCLINATION":97.499,"RA_OF_ASC_NODE":95.9174,"ARG_OF_PERICENTER":52.3584,"MEAN_ANOMALY":308.2508,"EPHEMERIS_TYPE":0,"CLASSIFICATION_TYPE":"U","NORAD_CAT_ID":68379,"ELEMENT_SET_NO":999,"REV_AT_EPOCH":41,"BSTAR":0.00023729144,"MEAN_MOTION_DOT":7.35e-5,"MEAN_MOTION_DDOT":0},{"OBJECT_NAME":"SHIYAN-33","OBJECT_ID":"2026-064A","EPOCH":"2026-03-28T17:30:21.266784","MEAN_MOTION":15.23574602,"ECCENTRICITY":0.0014898,"INCLINATION":97.4665,"RA_OF_ASC_NODE":163.6715,"ARG_OF_PERICENTER":226.161,"MEAN_ANOMALY":133.8396,"EPHEMERIS_TYPE":0,"CLASSIFICATION_TYPE":"U","NORAD_CAT_ID":68405,"ELEMENT_SET_NO":999,"REV_AT_EPOCH":24,"BSTAR":0.00026576,"MEAN_MOTION_DOT":6.303e-5,"MEAN_MOTION_DDOT":0}]
